YAOGAN-36 04C           
1 54750U 22171E   26068.78871400  .00016196  00000+0  54592-3 0  9991
2 54750  34.9797  96.6578 0006685 275.3761  84.6192 15.29852307180246
STARLINK-31701          
1 59582U 24076U   26068.24059664  .00050384  00000+0  18223-2 0  9993
2 59582  43.0036  11.5643 0001188 283.6526  76.4193 15.27682506106343
